{"type": "FeatureCollection", "features": [{"type": "Feature", "properties": {"label": "Driving", "color": "#888888"}, "geometry": {"type": "MultiLineString", "coordinates": [[[-155.981298, 19.726197], [-155.981439, 19.725918], [-155.981297, 19.725578], [-155.980537, 19.725711], [-155.979984, 19.727355], [-155.979814, 19.727464], [-155.978841, 19.727269], [-155.978182, 19.722887], [-155.97772, 19.721876], [-155.977374, 19.720051], [-155.978001, 19.71473], [-155.97783, 19.7129], [-155.976672, 19.70816], [-155.976608, 19.7073], [-155.977095, 19.697166], [-155.976969, 19.695772], [-155.975311, 19.686616], [-155.97559, 19.684416], [-155.975202, 19.683665], [-155.975062, 19.682514], [-155.975398, 19.681749], [-155.977264, 19.679741], [-155.979706, 19.67408], [-155.979699, 19.670314], [-155.980031, 19.66963], [-155.980848, 19.668788], [-155.981083, 19.668331], [-155.981197, 19.667757], [-155.981117, 19.666369], [-155.981685, 19.664453], [-155.98171, 19.663687], [-155.981241, 19.660631], [-155.981394, 19.659814], [-155.981762, 19.659234], [-155.982878, 19.658485], [-155.983313, 19.657962], [-155.983943, 19.654049], [-155.984671, 19.652527], [-155.985406, 19.651794], [-155.98871, 19.649542], [-155.988613, 19.648948], [-155.989015, 19.647121], [-155.988713, 19.644889], [-155.989557, 19.643047], [-155.989887, 19.642719], [-155.992232, 19.641515], [-155.992617, 19.640826], [-155.992547, 19.640636], [-155.991662, 19.640133], [-155.991153, 19.639489], [-155.985203, 19.628985], [-155.984257, 19.627903], [-155.982948, 19.62681], [-155.983192, 19.626709], [-155.983721, 19.627093], [-155.986006, 19.626439], [-155.987273, 19.62582], [-155.985642, 19.623894], [-155.984524, 19.619766], [-155.982266, 19.614863], [-155.981577, 19.613875], [-155.98076, 19.614223], [-155.98074, 19.614354], [-155.980956, 19.614432], [-155.980413, 19.614743], [-155.980979, 19.61443], [-155.980844, 19.614288], [-155.98102, 19.614004], [-155.980858, 19.614001], [-155.980732, 19.613875], [-155.98083, 19.613833], [-155.980735, 19.613957], [-155.980832, 19.613886]], [[-155.980959, 19.614491], [-155.981563, 19.613856], [-155.980908, 19.61338], [-155.980746, 19.612697], [-155.980114, 19.611741], [-155.978575, 19.609615], [-155.977009, 19.60797], [-155.976499, 19.606828], [-155.97519, 19.605387], [-155.974562, 19.604257], [-155.974373, 19.60322], [-155.97466, 19.601301], [-155.974198, 19.598592], [-155.973092, 19.596262], [-155.971476, 19.594333], [-155.971032, 19.593168], [-155.971008, 19.59229], [-155.971554, 19.589786], [-155.971324, 19.587899], [-155.970736, 19.586685], [-155.968762, 19.584493], [-155.967689, 19.582545], [-155.966606, 19.581122], [-155.966348, 19.580398], [-155.966383, 19.580002]], [[-156.037332, 19.735178], [-156.037733, 19.735298], [-156.037992, 19.734802], [-156.038145, 19.733527], [-156.038012, 19.733393], [-156.030841, 19.73272], [-156.03186, 19.725882], [-156.031732, 19.725432], [-156.029505, 19.725139], [-156.026086, 19.725568], [-156.024379, 19.725432], [-156.022914, 19.724952], [-156.019903, 19.723364], [-156.014332, 19.721253], [-156.007085, 19.720845], [-156.003147, 19.71943], [-155.999259, 19.719137], [-155.99353, 19.71995], [-155.987657, 19.718596], [-155.984868, 19.71826], [-155.984622, 19.720526], [-155.984816, 19.720882], [-155.985656, 19.721531], [-155.985754, 19.722435], [-155.983419, 19.722567], [-155.98334, 19.72556], [-155.982535, 19.725752], [-155.982142, 19.725568], [-155.981431, 19.725572], [-155.981352, 19.72615], [-155.980858, 19.726109], [-155.981147, 19.725952], [-155.980936, 19.726055], [-155.981217, 19.726117], [-155.98081, 19.726167], [-155.98108, 19.726111]], [[-155.971887, 19.594922], [-155.971746, 19.594306], [-155.971256, 19.593972], [-155.971025, 19.593239], [-155.971041, 19.592226], [-155.971363, 19.591054], [-155.9709, 19.590828], [-155.969106, 19.591401], [-155.968495, 19.592703], [-155.967379, 19.593598], [-155.965557, 19.594158], [-155.964043, 19.594339], [-155.963041, 19.594642], [-155.962659, 19.594954], [-155.962134, 19.595865], [-155.961779, 19.597751], [-155.961233, 19.598038], [-155.960399, 19.598025], [-155.959534, 19.598251], [-155.959579, 19.598695], [-155.978707, 19.636199], [-155.979663, 19.63778], [-155.980884, 19.639322], [-155.981907, 19.640334], [-155.984513, 19.642145], [-155.988871, 19.644146], [-155.98913, 19.644088], [-155.98956, 19.643007], [-155.989889, 19.642759], [-155.990484, 19.643597], [-155.990692, 19.643607], [-155.990541, 19.643429], [-155.990704, 19.64336], [-155.990395, 19.643696], [-155.990595, 19.643455], [-155.990688, 19.643698], [-155.990481, 19.644163], [-155.990844, 19.644176], [-155.990838, 19.64397], [-155.990749, 19.644207], [-155.991012, 19.644346], [-155.990854, 19.644368], [-155.991058, 19.644113], [-155.9907, 19.643997], [-155.990751, 19.643701], [-155.990601, 19.643412], [-155.990383, 19.643514], [-155.990012, 19.642649], [-155.989743, 19.642685], [-155.989561, 19.643534], [-155.989186, 19.643962], [-155.989005, 19.64396], [-155.988614, 19.64486], [-155.988857, 19.647238], [-155.988482, 19.648966], [-155.988569, 19.649541], [-155.985177, 19.651915], [-155.984438, 19.652712], [-155.983873, 19.654044], [-155.983229, 19.657925], [-155.982977, 19.658285], [-155.981765, 19.659183], [-155.981292, 19.659904], [-155.981156, 19.66072], [-155.981675, 19.664367], [-155.981099, 19.66628], [-155.981181, 19.667719], [-155.981072, 19.668281], [-155.979662, 19.670158], [-155.979655, 19.674066], [-155.977288, 19.67971], [-155.975358, 19.68178], [-155.975052, 19.682432], [-155.975198, 19.683627], [-155.975583, 19.68441], [-155.975565, 19.685455], [-155.975298, 19.686575], [-155.977067, 19.69658], [-155.977086, 19.698529], [-155.976582, 19.706915], [-155.976795, 19.708445], [-155.97786, 19.71295], [-155.977997, 19.714452], [-155.977391, 19.719795], [-155.977407, 19.720783], [-155.978426, 19.723707], [-155.978849, 19.727287], [-155.98001, 19.727358], [-155.980451, 19.725891], [-155.98067, 19.725645], [-155.981356, 19.725606], [-155.981318, 19.72614]]]}}, {"type": "Feature", "properties": {"label": "Driving", "color": "#888888"}, "geometry": {"type": "MultiLineString", "coordinates": [[[-155.981338, 19.726151], [-155.981377, 19.725548], [-155.980721, 19.725577], [-155.980444, 19.725804], [-155.980041, 19.727309], [-155.978843, 19.727273], [-155.978667, 19.730495], [-155.977292, 19.737135], [-155.976687, 19.73921], [-155.974573, 19.744799], [-155.973772, 19.75075], [-155.973046, 19.75258], [-155.972129, 19.753659], [-155.970955, 19.754516], [-155.96982, 19.755047], [-155.96738, 19.755709], [-155.966085, 19.756375], [-155.961537, 19.760525], [-155.960301, 19.76136], [-155.958543, 19.762026], [-155.939426, 19.766485], [-155.935616, 19.76813], [-155.9331, 19.76849], [-155.93231, 19.768905], [-155.93081, 19.770184], [-155.927304, 19.771739], [-155.925242, 19.773462], [-155.923643, 19.774422], [-155.922307, 19.774871], [-155.917611, 19.775927], [-155.910188, 19.780624], [-155.90392, 19.782886], [-155.898859, 19.78503], [-155.875773, 19.792022], [-155.855863, 19.798627], [-155.850639, 19.800078], [-155.844673, 19.804882], [-155.841084, 19.806979], [-155.840525, 19.807604], [-155.840461, 19.808101], [-155.840648, 19.808602], [-155.841948, 19.8094], [-155.842311, 19.810109], [-155.842422, 19.810869], [-155.843435, 19.811935], [-155.843916, 19.812892], [-155.843963, 19.813637], [-155.843786, 19.814352], [-155.843149, 19.815625], [-155.842692, 19.816125], [-155.837162, 19.819516], [-155.816491, 19.829976], [-155.815463, 19.830262], [-155.811114, 19.830901], [-155.801645, 19.83118], [-155.800302, 19.831567], [-155.796663, 19.833523], [-155.795977, 19.833735], [-155.790212, 19.833647], [-155.789063, 19.833761], [-155.787546, 19.83427], [-155.785223, 19.835716], [-155.777531, 19.838122], [-155.774946, 19.837981], [-155.771529, 19.837555], [-155.770116, 19.837637], [-155.764555, 19.839965], [-155.748581, 19.844126], [-155.748194, 19.843868], [-155.746845, 19.840053], [-155.746064, 19.838861], [-155.745222, 19.837948], [-155.743817, 19.836831], [-155.742654, 19.836209], [-155.735164, 19.8337], [-155.733937, 19.833088], [-155.732451, 19.831598], [-155.731146, 19.827881], [-155.730514, 19.826696], [-155.729855, 19.825891], [-155.729049, 19.825172], [-155.721864, 19.820065], [-155.720921, 19.819143], [-155.717662, 19.814994], [-155.716575, 19.813836], [-155.708962, 19.80791], [-155.684097, 19.797042], [-155.680583, 19.794533], [-155.678952, 19.793653], [-155.677146, 19.793118], [-155.67575, 19.792966], [-155.668659, 19.793344], [-155.666498, 19.793187], [-155.664653, 19.792649], [-155.655277, 19.788981], [-155.646022, 19.789845], [-155.644678, 19.790758], [-155.641215, 19.793711], [-155.639987, 19.794295], [-155.638665, 19.794626], [-155.636752, 19.79465], [-155.629008, 19.79332], [-155.627439, 19.792769], [-155.626102, 19.791916], [-155.617482, 19.783494], [-155.615334, 19.781906], [-155.612575, 19.780913], [-155.5985, 19.778618], [-155.596411, 19.778005], [-155.594088, 19.776608], [-155.584878, 19.768848], [-155.583493, 19.767983], [-155.582252, 19.767446], [-155.580125, 19.766959], [-155.552362, 19.763399], [-155.550201, 19.762941], [-155.54443, 19.761274], [-155.542255, 19.76095], [-155.536284, 19.760438], [-155.534811, 19.760013], [-155.533747, 19.759499], [-155.531973, 19.758159], [-155.530487, 19.756177], [-155.529986, 19.754896], [-155.529037, 19.750466], [-155.528342, 19.749071], [-155.527472, 19.748058], [-155.525685, 19.746813], [-155.518912, 19.744852], [-155.517415, 19.744196], [-155.516268, 19.743475], [-155.502328, 19.730162], [-155.501744, 19.72923], [-155.500919, 19.725931], [-155.500238, 19.724563], [-155.493809, 19.717791], [-155.488666, 19.711007], [-155.484787, 19.706926], [-155.484309, 19.705725], [-155.483373, 19.69582], [-155.482684, 19.694139], [-155.48158, 19.692674], [-155.479891, 19.691385], [-155.47785, 19.690582], [-155.466686, 19.689096], [-155.463406, 19.697886], [-155.462407, 19.700308], [-155.461877, 19.70115], [-155.459885, 19.703732], [-155.453207, 19.709571], [-155.452033, 19.710348], [-155.448105, 19.71231], [-155.447124, 19.713049], [-155.446526, 19.713776], [-155.446009, 19.714845], [-155.445341, 19.718063], [-155.445445, 19.719018], [-155.446487, 19.721422], [-155.447066, 19.721716], [-155.44899, 19.72175], [-155.449456, 19.722362], [-155.449167, 19.723081], [-155.447042, 19.724515], [-155.446791, 19.725134], [-155.4469, 19.725816], [-155.448797, 19.728522], [-155.452334, 19.731148], [-155.452908, 19.732148], [-155.452767, 19.733063], [-155.451574, 19.734319], [-155.451172, 19.734963], [-155.450849, 19.737456], [-155.450943, 19.737902], [-155.451233, 19.738214], [-155.452237, 19.738538], [-155.452788, 19.738974], [-155.453059, 19.73964], [-155.453011, 19.740175], [-155.452461, 19.740912], [-155.450018, 19.742933], [-155.449782, 19.743323], [-155.449784, 19.743773], [-155.450188, 19.744246], [-155.452262, 19.744927], [-155.453203, 19.745819], [-155.454571, 19.748666], [-155.45521, 19.750948], [-155.456556, 19.752721], [-155.45707, 19.754831], [-155.456944, 19.755467], [-155.456369, 19.75669], [-155.456342, 19.758372], [-155.455992, 19.758592], [-155.456139, 19.758637], [-155.456231, 19.75926], [-155.456016, 19.759345], [-155.456068, 19.759111], [-155.455985, 19.759303], [-155.456419, 19.759377], [-155.456794, 19.760922], [-155.456808, 19.761358], [-155.456521, 19.762036], [-155.455523, 19.762696], [-155.452846, 19.762878], [-155.450387, 19.763437], [-155.449954, 19.763791], [-155.449926, 19.764308], [-155.450325, 19.764689], [-155.452057, 19.764855], [-155.455664, 19.765883], [-155.458017, 19.767111], [-155.460128, 19.767847], [-155.461148, 19.768875], [-155.462754, 19.769057], [-155.46301, 19.76934], [-155.463044, 19.769803], [-155.462836, 19.770125], [-155.462359, 19.770286], [-155.45881, 19.770395], [-155.456096, 19.770696], [-155.453536, 19.770666], [-155.449529, 19.772021], [-155.448286, 19.772622], [-155.447408, 19.772789], [-155.447034, 19.773078], [-155.446913, 19.773531], [-155.447034, 19.773888], [-155.447402, 19.774145], [-155.448478, 19.774077], [-155.449464, 19.774358], [-155.451274, 19.774248], [-155.453632, 19.774841], [-155.454795, 19.774843], [-155.455216, 19.775038], [-155.455447, 19.775359], [-155.455455, 19.775796], [-155.455189, 19.77619], [-155.452273, 19.776624], [-155.451912, 19.77686], [-155.451687, 19.777501], [-155.451812, 19.777967], [-155.452091, 19.778271], [-155.454253, 19.778955], [-155.454798, 19.779606], [-155.454733, 19.780372], [-155.45365, 19.782805], [-155.453751, 19.783534], [-155.454573, 19.785779], [-155.454538, 19.789617], [-155.455278, 19.790507], [-155.455804, 19.791663], [-155.458327, 19.792832], [-155.45951, 19.794266], [-155.459599, 19.794938], [-155.459205, 19.795554], [-155.459203, 19.795877], [-155.459533, 19.796344], [-155.460221, 19.796619], [-155.460538, 19.796949], [-155.46091, 19.799775], [-155.461294, 19.801074], [-155.461923, 19.801955], [-155.462551, 19.803478], [-155.463708, 19.805075], [-155.465511, 19.806045], [-155.466115, 19.806528], [-155.466945, 19.807549], [-155.467482, 19.808623], [-155.467966, 19.810273], [-155.467572, 19.810427], [-155.467757, 19.810311], [-155.467777, 19.810447], [-155.46801, 19.810465], [-155.468645, 19.8122], [-155.468624, 19.812549], [-155.468161, 19.81342], [-155.468277, 19.813863], [-155.469179, 19.814681], [-155.469948, 19.815746], [-155.472606, 19.817295], [-155.473304, 19.818018], [-155.473815, 19.818841], [-155.474207, 19.819104], [-155.474074, 19.819312], [-155.473786, 19.819277], [-155.472591, 19.818135], [-155.471272, 19.817457], [-155.467645, 19.816579], [-155.467365, 19.81665], [-155.467487, 19.816947], [-155.467945, 19.816922], [-155.468389, 19.817112], [-155.470421, 19.818399], [-155.470957, 19.818971], [-155.471333, 19.819767], [-155.471359, 19.820766], [-155.470661, 19.822007], [-155.469302, 19.822702], [-155.469161, 19.823054], [-155.469289, 19.822695], [-155.470764, 19.822065]], [[-155.470758, 19.822095], [-155.470736, 19.821853], [-155.471231, 19.821114], [-155.471436, 19.820466], [-155.471366, 19.819857], [-155.470995, 19.818946], [-155.470328, 19.818288], [-155.468355, 19.817061], [-155.467515, 19.816906], [-155.467437, 19.816677], [-155.469176, 19.817283], [-155.469857, 19.817165], [-155.471222, 19.817478], [-155.472547, 19.818139], [-155.473766, 19.8192], [-155.474113, 19.819341], [-155.474225, 19.819078], [-155.473843, 19.818809], [-155.47336, 19.818026], [-155.47258, 19.817223], [-155.469992, 19.815762], [-155.469138, 19.814625], [-155.468247, 19.813804], [-155.46814, 19.813229], [-155.468616, 19.812565], [-155.468667, 19.812194], [-155.467617, 19.808832], [-155.467031, 19.807612], [-155.466172, 19.806553], [-155.465531, 19.806043], [-155.463794, 19.805144], [-155.463167, 19.804488], [-155.462647, 19.803616], [-155.461894, 19.801811], [-155.461322, 19.80113], [-155.460913, 19.799615], [-155.460555, 19.796935], [-155.460336, 19.796687], [-155.459409, 19.796318], [-155.459164, 19.79597], [-155.459232, 19.79551], [-155.459641, 19.794806], [-155.459493, 19.794212], [-155.458305, 19.792803], [-155.456138, 19.79189], [-155.455778, 19.791607], [-155.455469, 19.790989], [-155.455566, 19.790808], [-155.454728, 19.789994], [-155.454536, 19.789511], [-155.454472, 19.78704], [-155.454621, 19.786054], [-155.453634, 19.782896], [-155.45381, 19.782185], [-155.454783, 19.780234], [-155.454816, 19.779648], [-155.454163, 19.778353], [-155.454066, 19.778864], [-155.452403, 19.778438], [-155.451899, 19.778093], [-155.45171, 19.777443], [-155.451931, 19.776895], [-155.452381, 19.776591], [-155.455196, 19.776183], [-155.455505, 19.775731], [-155.455439, 19.77531], [-155.454869, 19.774871], [-155.4537, 19.774898], [-155.451168, 19.774241], [-155.449545, 19.774392], [-155.448469, 19.774086], [-155.447401, 19.774158], [-155.446906, 19.773652], [-155.446934, 19.773196], [-155.447305, 19.77284], [-155.448391, 19.772585], [-155.449692, 19.771937], [-155.453361, 19.770706], [-155.456355, 19.77069], [-155.46244, 19.770328], [-155.462973, 19.770006], [-155.463066, 19.769491], [-155.462745, 19.76904], [-155.461095, 19.768866], [-155.460186, 19.767889], [-155.458034, 19.767149], [-155.456336, 19.766177], [-155.452135, 19.76487], [-155.450384, 19.764718], [-155.449971, 19.764439], [-155.449904, 19.763896], [-155.45035, 19.763458], [-155.452966, 19.76289], [-155.455456, 19.762701], [-155.456398, 19.762198], [-155.456715, 19.761709], [-155.456843, 19.761076], [-155.456357, 19.758544], [-155.455874, 19.758602], [-155.455837, 19.758818], [-155.455669, 19.758861]], [[-155.455906, 19.75864], [-155.456359, 19.758475], [-155.456359, 19.756853], [-155.457015, 19.755302], [-155.457022, 19.754673], [-155.456544, 19.752634], [-155.455151, 19.750814], [-155.454533, 19.748485], [-155.45308, 19.745599], [-155.451994, 19.744746], [-155.450206, 19.744241], [-155.449885, 19.743977], [-155.449753, 19.743561], [-155.449978, 19.742982], [-155.452592, 19.740842], [-155.453034, 19.740104], [-155.45305, 19.739611], [-155.452843, 19.739056], [-155.452394, 19.738641], [-155.451103, 19.738076], [-155.450882, 19.737442], [-155.451247, 19.734875], [-155.452754, 19.733175], [-155.452949, 19.732598], [-155.452878, 19.73188], [-155.452162, 19.730887], [-155.448799, 19.7285], [-155.446943, 19.725893], [-155.446806, 19.725208], [-155.447026, 19.724588], [-155.447482, 19.724147], [-155.449249, 19.723043], [-155.449445, 19.722709], [-155.449447, 19.722251], [-155.449266, 19.721924], [-155.448845, 19.721666], [-155.447239, 19.721738], [-155.446413, 19.721371], [-155.445418, 19.718941], [-155.445357, 19.718052], [-155.44606, 19.714786], [-155.446494, 19.713865], [-155.447084, 19.713111], [-155.448009, 19.712374], [-155.452284, 19.710227], [-155.453171, 19.709619], [-155.459753, 19.703912], [-155.461927, 19.7011], [-155.46245, 19.700226], [-155.463492, 19.697704], [-155.466598, 19.689135], [-155.460701, 19.688284], [-155.451054, 19.687439], [-155.447313, 19.686535], [-155.441612, 19.685717], [-155.436389, 19.685817], [-155.431365, 19.684513], [-155.425624, 19.68475], [-155.422295, 19.684592], [-155.418135, 19.68472], [-155.407423, 19.682418], [-155.401199, 19.682284], [-155.397487, 19.681635], [-155.392993, 19.68126], [-155.390951, 19.680493], [-155.388519, 19.678785], [-155.386281, 19.677723], [-155.376469, 19.675833], [-155.375353, 19.675088], [-155.372608, 19.67217], [-155.371358, 19.671139], [-155.369656, 19.670241], [-155.367495, 19.669737], [-155.365536, 19.66976], [-155.358884, 19.670749], [-155.352053, 19.670946], [-155.350686, 19.67116], [-155.343721, 19.673099], [-155.339236, 19.6757], [-155.337145, 19.676283], [-155.332308, 19.676321], [-155.329348, 19.675835], [-155.328314, 19.675952], [-155.322619, 19.677383], [-155.317447, 19.676934], [-155.313109, 19.677223], [-155.309177, 19.677129], [-155.30753, 19.677332], [-155.303449, 19.678267], [-155.301883, 19.678873], [-155.299162, 19.680895], [-155.296516, 19.682345], [-155.293607, 19.684723], [-155.291486, 19.685733], [-155.289603, 19.686109], [-155.285818, 19.686259], [-155.282409, 19.68731], [-155.281592, 19.68734], [-155.278032, 19.686861], [-155.277244, 19.686918], [-155.276491, 19.687148], [-155.273539, 19.688678], [-155.27283, 19.68886], [-155.271592, 19.688832], [-155.268983, 19.688032], [-155.267358, 19.688083], [-155.259915, 19.691019], [-155.259078, 19.691575], [-155.257347, 19.693143], [-155.256295, 19.693704], [-155.255045, 19.693899], [-155.246781, 19.694226], [-155.245399, 19.694458], [-155.24376, 19.695142], [-155.240796, 19.697262], [-155.237543, 19.698947], [-155.236482, 19.699393], [-155.234831, 19.699704], [-155.232976, 19.699591], [-155.2268, 19.698038], [-155.222992, 19.696496], [-155.221124, 19.695237], [-155.220146, 19.694846], [-155.213811, 19.694342], [-155.204142, 19.692573], [-155.197113, 19.68998], [-155.195889, 19.689324], [-155.194885, 19.688408], [-155.191994, 19.683752], [-155.190718, 19.682065], [-155.190159, 19.682284], [-155.186712, 19.681565], [-155.182562, 19.681399], [-155.181563, 19.681584], [-155.180142, 19.681488], [-155.179827, 19.681627], [-155.179414, 19.682266], [-155.178732, 19.682767], [-155.176212, 19.683754], [-155.174737, 19.683196], [-155.173621, 19.683067], [-155.169432, 19.681899], [-155.1673, 19.680346], [-155.166092, 19.678839], [-155.165553, 19.678638], [-155.163777, 19.678538], [-155.159976, 19.680836], [-155.159445, 19.680912], [-155.157828, 19.680705], [-155.155606, 19.680986], [-155.155216, 19.681403], [-155.146897, 19.683562], [-155.143125, 19.685382], [-155.142091, 19.68548], [-155.135857, 19.685316], [-155.135326, 19.685498], [-155.13393, 19.686828], [-155.132621, 19.687473], [-155.13208, 19.687346], [-155.131314, 19.686821], [-155.130595, 19.686673], [-155.129965, 19.687371], [-155.129597, 19.688071], [-155.128245, 19.688593], [-155.126764, 19.689717], [-155.124926, 19.690646], [-155.124291, 19.69143], [-155.123292, 19.693533], [-155.12286, 19.694021], [-155.121902, 19.694535], [-155.120789, 19.694494], [-155.119335, 19.695305], [-155.117034, 19.69681], [-155.115888, 19.698476], [-155.114747, 19.699143], [-155.113713, 19.702508], [-155.112079, 19.703201], [-155.111056, 19.704118], [-155.110888, 19.704605], [-155.111067, 19.705696], [-155.110962, 19.707004], [-155.109079, 19.710157], [-155.107017, 19.712851], [-155.104461, 19.715216], [-155.10268, 19.71744], [-155.102272, 19.717708], [-155.100969, 19.717979], [-155.100267, 19.718307], [-155.09146, 19.723731], [-155.090345, 19.722242], [-155.090747, 19.721933], [-155.090866, 19.722252]], [[-155.085681, 19.723998], [-155.086483, 19.723486], [-155.086859, 19.72402], [-155.087063, 19.723969], [-155.087924, 19.723553], [-155.087934, 19.723357], [-155.080783, 19.712053], [-155.070172, 19.696013], [-155.069912, 19.694789], [-155.066249, 19.694945], [-155.06593, 19.694748], [-155.066115, 19.692922], [-155.06609, 19.69087], [-155.064702, 19.6732], [-155.064127, 19.670042], [-155.063186, 19.667551], [-155.062055, 19.665616], [-155.051323, 19.649567], [-155.046708, 19.643138], [-155.041381, 19.635237], [-155.040581, 19.633811], [-155.039978, 19.631817], [-155.039883, 19.62596], [-155.040074, 19.624958], [-155.040642, 19.623447], [-155.041544, 19.62189], [-155.047346, 19.613757], [-155.047911, 19.612469], [-155.048345, 19.609799], [-155.048817, 19.608383], [-155.049639, 19.60701], [-155.052673, 19.602915], [-155.056245, 19.59519], [-155.057131, 19.594012], [-155.060007, 19.590994], [-155.060714, 19.589958], [-155.061033, 19.588904], [-155.06106, 19.588036], [-155.060365, 19.584111], [-155.060501, 19.583129], [-155.060829, 19.582331], [-155.064182, 19.578308], [-155.068336, 19.57539], [-155.070585, 19.574221], [-155.075612, 19.572476], [-155.077881, 19.571367], [-155.086469, 19.565889], [-155.088689, 19.564753], [-155.08875, 19.564465], [-155.088195, 19.564251], [-155.088369, 19.56404], [-155.088164, 19.564115], [-155.08834, 19.564158], [-155.088232, 19.564308], [-155.088616, 19.564411], [-155.088684, 19.564695], [-155.089295, 19.564595], [-155.092417, 19.563171], [-155.09496, 19.561658], [-155.103123, 19.554914], [-155.109154, 19.548972], [-155.112044, 19.547469], [-155.118086, 19.542557], [-155.122172, 19.539459], [-155.133316, 19.528921], [-155.134158, 19.527726], [-155.134644, 19.526604], [-155.142864, 19.502576], [-155.146932, 19.494434], [-155.155492, 19.482689], [-155.158621, 19.478033], [-155.161936, 19.473581], [-155.162906, 19.472739], [-155.163612, 19.471703], [-155.165195, 19.468704], [-155.165575, 19.467272], [-155.166406, 19.465588], [-155.171932, 19.457125], [-155.172849, 19.45609], [-155.174246, 19.455108], [-155.175792, 19.454526], [-155.19597, 19.450277], [-155.198262, 19.449598], [-155.199389, 19.449106], [-155.205482, 19.445795], [-155.216589, 19.440386], [-155.21873, 19.439195], [-155.220477, 19.437901], [-155.234232, 19.425688], [-155.235689, 19.42465], [-155.237389, 19.423827], [-155.239095, 19.42333], [-155.243172, 19.422505], [-155.244608, 19.422643], [-155.248572, 19.42385], [-155.249816, 19.424503], [-155.250726, 19.425469], [-155.253073, 19.429046], [-155.254502, 19.428666], [-155.25548, 19.428709], [-155.25556, 19.428565], [-155.255093, 19.42808], [-155.251541, 19.425569], [-155.250253, 19.424097], [-155.249929, 19.423224], [-155.248862, 19.42337], [-155.248443, 19.423271], [-155.24791, 19.422787], [-155.247491, 19.421972], [-155.245951, 19.421091], [-155.245599, 19.420107], [-155.244573, 19.419998], [-155.243449, 19.419214], [-155.242789, 19.418209], [-155.242727, 19.416779], [-155.242172, 19.416294], [-155.241055, 19.415959], [-155.240428, 19.414506], [-155.23957, 19.414415], [-155.23928, 19.413889], [-155.238675, 19.413448], [-155.238456, 19.412516], [-155.238614, 19.411313], [-155.239298, 19.410647], [-155.239658, 19.409702], [-155.239459, 19.408816], [-155.239987, 19.408419], [-155.240437, 19.408313], [-155.241053, 19.409299], [-155.242131, 19.409635], [-155.243459, 19.408882], [-155.244419, 19.409016], [-155.249416, 19.408189], [-155.248834, 19.408399], [-155.248075, 19.408424], [-155.247695, 19.408277], [-155.246188, 19.408431], [-155.245412, 19.408796], [-155.244452, 19.408997], [-155.243594, 19.408814], [-155.242057, 19.409639], [-155.240994, 19.409216], [-155.240489, 19.40832], [-155.240183, 19.40832], [-155.239443, 19.408769], [-155.239592, 19.409819], [-155.23916, 19.410715], [-155.238521, 19.411402], [-155.238417, 19.412572], [-155.238662, 19.413526], [-155.239259, 19.413942], [-155.239614, 19.414483], [-155.240447, 19.414559], [-155.240834, 19.415802], [-155.241054, 19.416063], [-155.242135, 19.416344], [-155.24277, 19.417027], [-155.242907, 19.416891], [-155.242854, 19.416515], [-155.242395, 19.416141], [-155.242962, 19.416445]], [[-155.504807, 19.136474], [-155.504899, 19.136736], [-155.505101, 19.136709], [-155.506066, 19.136297], [-155.50641, 19.135919], [-155.506584, 19.135258], [-155.506196, 19.133888], [-155.506641, 19.133253], [-155.507438, 19.132981], [-155.509501, 19.133188], [-155.510391, 19.133564], [-155.511725, 19.133823], [-155.512546, 19.134285], [-155.513038, 19.134967], [-155.513654, 19.136844], [-155.514919, 19.138612], [-155.51569, 19.139304], [-155.516553, 19.139857], [-155.516685, 19.139806], [-155.539444, 19.10287], [-155.55003, 19.08875], [-155.551801, 19.086672], [-155.553517, 19.08525], [-155.553949, 19.083614], [-155.555291, 19.081237], [-155.55591, 19.079236], [-155.556636, 19.077549], [-155.557402, 19.076342], [-155.559182, 19.074161], [-155.560289, 19.07321], [-155.562337, 19.072291], [-155.565193, 19.070428], [-155.570328, 19.065726], [-155.571334, 19.065066], [-155.574222, 19.063945], [-155.581749, 19.061635], [-155.588944, 19.060173], [-155.598494, 19.060216], [-155.599667, 19.060365], [-155.602015, 19.061797], [-155.60757, 19.064785], [-155.611192, 19.067063], [-155.611526, 19.067339], [-155.612151, 19.068346], [-155.615342, 19.067095], [-155.61568, 19.067484], [-155.615919, 19.068263], [-155.616175, 19.068416], [-155.618175, 19.068504], [-155.618851, 19.068304], [-155.619386, 19.066844], [-155.620515, 19.066086], [-155.620943, 19.065397], [-155.623602, 19.064496], [-155.625792, 19.062656], [-155.628489, 19.061488], [-155.631687, 19.061788], [-155.634071, 19.06004], [-155.636666, 19.060689], [-155.638435, 19.062354], [-155.638836, 19.062538], [-155.639963, 19.062642], [-155.640831, 19.062539], [-155.642478, 19.06281], [-155.644972, 19.062487], [-155.647198, 19.061672], [-155.652788, 19.06036], [-155.655474, 19.060531], [-155.664082, 19.059939], [-155.666295, 19.060074], [-155.668323, 19.060855], [-155.668971, 19.060897], [-155.671675, 19.060291], [-155.674429, 19.058536], [-155.675584, 19.058194], [-155.699767, 19.05981], [-155.704553, 19.060469], [-155.709216, 19.061757], [-155.740518, 19.07272], [-155.74129, 19.072811], [-155.741975, 19.073242], [-155.75735, 19.078622], [-155.784026, 19.087724], [-155.815701, 19.102353], [-155.819292, 19.104524], [-155.826364, 19.109302], [-155.828372, 19.110829], [-155.830983, 19.113501], [-155.832855, 19.116144], [-155.836828, 19.123771], [-155.847047, 19.141135], [-155.849708, 19.144574], [-155.854209, 19.149044], [-155.857114, 19.152459], [-155.859666, 19.156459], [-155.86137, 19.160214], [-155.86256, 19.163893], [-155.86336, 19.168386], [-155.863481, 19.171481], [-155.86324, 19.182265], [-155.863432, 19.184891], [-155.864202, 19.18831], [-155.866896, 19.195357], [-155.867724, 19.198405], [-155.86808, 19.201412], [-155.868203, 19.209022], [-155.868599, 19.210212], [-155.869757, 19.212441], [-155.870682, 19.213458], [-155.871181, 19.214456], [-155.871438, 19.215868], [-155.871903, 19.217125], [-155.871813, 19.219741], [-155.872818, 19.222491], [-155.873784, 19.223506], [-155.874962, 19.226586], [-155.875441, 19.230998], [-155.876121, 19.233472], [-155.875866, 19.234718], [-155.877018, 19.237138], [-155.876961, 19.23955], [-155.877415, 19.241559], [-155.877106, 19.242931], [-155.877776, 19.24747], [-155.87761, 19.249823], [-155.877894, 19.251005], [-155.877223, 19.252329], [-155.877208, 19.253325], [-155.876823, 19.254314], [-155.876597, 19.256297], [-155.876757, 19.257328], [-155.875661, 19.260064], [-155.875579, 19.262591], [-155.875125, 19.265018], [-155.874899, 19.268725], [-155.875295, 19.270328], [-155.875425, 19.27171], [-155.875856, 19.272555], [-155.875899, 19.272945], [-155.875697, 19.273307], [-155.87495, 19.273955], [-155.874149, 19.275827], [-155.874127, 19.276583], [-155.87451, 19.279048], [-155.873698, 19.281611], [-155.873342, 19.283388], [-155.873334, 19.284644], [-155.873626, 19.286233], [-155.873194, 19.287102], [-155.873133, 19.289641], [-155.874428, 19.29508], [-155.873976, 19.296385], [-155.873927, 19.297277], [-155.874092, 19.298361], [-155.873224, 19.299857], [-155.873292, 19.301237], [-155.873608, 19.302285], [-155.873186, 19.304745], [-155.874834, 19.308349], [-155.874972, 19.309417], [-155.874539, 19.31046], [-155.874782, 19.31158], [-155.874608, 19.312361], [-155.874032, 19.313173], [-155.874092, 19.314368], [-155.872304, 19.320397], [-155.872792, 19.328038], [-155.872631, 19.32975], [-155.872716, 19.333445], [-155.872415, 19.334613], [-155.872904, 19.341629], [-155.873237, 19.342333], [-155.874907, 19.344437], [-155.875001, 19.345593], [-155.874538, 19.346699], [-155.874707, 19.348519], [-155.876048, 19.351833], [-155.87649, 19.353391], [-155.877345, 19.354629], [-155.877706, 19.355766], [-155.877492, 19.357418], [-155.877169, 19.35853], [-155.877551, 19.360421], [-155.876994, 19.362166], [-155.877219, 19.363506], [-155.876939, 19.364684], [-155.877117, 19.368897], [-155.877041, 19.372136], [-155.876772, 19.372676], [-155.876368, 19.375536], [-155.876678, 19.37673], [-155.878119, 19.378219], [-155.878083, 19.379803], [-155.879022, 19.381209], [-155.879329, 19.395484], [-155.879044, 19.396128], [-155.879093, 19.396468], [-155.879354, 19.396196], [-155.880284, 19.398806], [-155.880401, 19.399977], [-155.880825, 19.401034], [-155.880706, 19.402916], [-155.881409, 19.405984], [-155.880949, 19.408131], [-155.880492, 19.408987], [-155.881045, 19.41165], [-155.881058, 19.41239], [-155.880511, 19.414273], [-155.880493, 19.416224], [-155.880093, 19.41697], [-155.880361, 19.418044], [-155.880624, 19.418209], [-155.881201, 19.418235], [-155.881475, 19.418801], [-155.881359, 19.419756], [-155.881441, 19.420991], [-155.880232, 19.423967], [-155.880031, 19.425087], [-155.880299, 19.428928], [-155.881282, 19.431907], [-155.881396, 19.4327], [-155.881016, 19.435141], [-155.881024, 19.436633], [-155.880086, 19.4384], [-155.879831, 19.439408], [-155.879646, 19.452657], [-155.879739, 19.45712], [-155.880901, 19.460546], [-155.881339, 19.461433], [-155.884931, 19.465994], [-155.887158, 19.467968], [-155.890778, 19.473528], [-155.894736, 19.478889], [-155.895761, 19.479712], [-155.898034, 19.480969], [-155.905881, 19.4865], [-155.90931, 19.488491], [-155.909489, 19.488435], [-155.909521, 19.488218], [-155.909576, 19.488307]], [[-155.242426, 19.416196], [-155.242158, 19.416346], [-155.242712, 19.417037], [-155.242635, 19.418004], [-155.245792, 19.420434], [-155.245986, 19.421237], [-155.247405, 19.42197], [-155.24766, 19.422192], [-155.247915, 19.422906], [-155.248551, 19.423376], [-155.249913, 19.423304], [-155.250259, 19.424215], [-155.251507, 19.425588], [-155.255199, 19.428201], [-155.255292, 19.428379], [-155.255116, 19.428615], [-155.254477, 19.428494], [-155.253375, 19.428875], [-155.253062, 19.429144], [-155.25468, 19.431585], [-155.255786, 19.432678], [-155.257397, 19.433505], [-155.270201, 19.436888], [-155.271468, 19.436984], [-155.272887, 19.436629], [-155.283872, 19.43031], [-155.317244, 19.414384], [-155.320136, 19.412656], [-155.322091, 19.411945], [-155.324112, 19.410855], [-155.326846, 19.408574], [-155.330863, 19.404697], [-155.335407, 19.401691], [-155.336856, 19.400542], [-155.338135, 19.3987], [-155.340358, 19.396801], [-155.343122, 19.393253], [-155.347109, 19.389271], [-155.350183, 19.386866], [-155.351402, 19.385597], [-155.354224, 19.381656], [-155.356426, 19.379496], [-155.357762, 19.377683], [-155.363835, 19.372419], [-155.372545, 19.364137], [-155.3754, 19.361204], [-155.379779, 19.356419], [-155.384385, 19.35106], [-155.389192, 19.344959], [-155.393422, 19.339144], [-155.399235, 19.33035], [-155.416121, 19.302955], [-155.42121, 19.293525], [-155.427386, 19.280816], [-155.429396, 19.277764], [-155.432523, 19.274005], [-155.4339, 19.271702], [-155.449465, 19.236391], [-155.450648, 19.234796], [-155.458218, 19.227598], [-155.459099, 19.226404], [-155.461613, 19.22222], [-155.473301, 19.194374], [-155.474101, 19.192902], [-155.476161, 19.190439], [-155.499935, 19.166508], [-155.501277, 19.164738], [-155.511462, 19.14822], [-155.510564, 19.147453], [-155.507304, 19.141119], [-155.506938, 19.139705], [-155.506331, 19.13848], [-155.505023, 19.137581], [-155.504892, 19.136658], [-155.504856, 19.13723], [-155.50507, 19.137771], [-155.504514, 19.138215], [-155.504407, 19.138179], [-155.504512, 19.138052], [-155.504437, 19.138134]]]}}, {"type": "Feature", "properties": {"label": "Driving", "color": "#888888"}, "geometry": {"type": "MultiLineString", "coordinates": [[[-155.962051, 19.561865], [-155.962171, 19.561905], [-155.961929, 19.561627], [-155.961903, 19.561333], [-155.962012, 19.561018], [-155.962403, 19.560691], [-155.962659, 19.559966], [-155.96245, 19.559258], [-155.961335, 19.558368], [-155.959563, 19.557519], [-155.959812, 19.55573], [-155.959347, 19.554352], [-155.956185, 19.550993], [-155.951861, 19.544859], [-155.9501, 19.536611], [-155.949101, 19.534444], [-155.947631, 19.532226], [-155.945896, 19.528176], [-155.944997, 19.527176], [-155.941524, 19.524204], [-155.940529, 19.523171], [-155.938104, 19.518282], [-155.919661, 19.493352], [-155.918692, 19.493207], [-155.918605, 19.493454], [-155.91498, 19.492154], [-155.91209, 19.489983], [-155.906002, 19.486462], [-155.900162, 19.482299], [-155.895205, 19.479212], [-155.894128, 19.478], [-155.892157, 19.47529], [-155.892425, 19.475492], [-155.892277, 19.475275], [-155.892115, 19.475375], [-155.892283, 19.47522], [-155.892188, 19.475131], [-155.892281, 19.475189]], [[-155.98135, 19.726098], [-155.981388, 19.725577], [-155.980665, 19.725602], [-155.980416, 19.725822], [-155.979994, 19.727311], [-155.978867, 19.727208], [-155.978366, 19.723414], [-155.977398, 19.720664], [-155.978036, 19.714337], [-155.977856, 19.712821], [-155.976784, 19.708331], [-155.976615, 19.706771], [-155.977089, 19.696706], [-155.975375, 19.686955], [-155.975323, 19.686159], [-155.975643, 19.684489], [-155.975243, 19.683706], [-155.975089, 19.68253], [-155.975342, 19.681856], [-155.977286, 19.679689], [-155.979721, 19.673919], [-155.979652, 19.670432], [-155.979933, 19.669739], [-155.981074, 19.668318], [-155.981202, 19.667742], [-155.981159, 19.666193], [-155.981718, 19.664314], [-155.981236, 19.660572], [-155.981355, 19.659844], [-155.981655, 19.65934], [-155.982946, 19.658378], [-155.983361, 19.657778], [-155.983904, 19.654103], [-155.984586, 19.652552], [-155.985549, 19.651606], [-155.988651, 19.649516], [-155.988564, 19.649036], [-155.98896, 19.647127], [-155.988693, 19.64494], [-155.988863, 19.644125], [-155.985049, 19.642337], [-155.983046, 19.641165], [-155.982601, 19.64083], [-155.979169, 19.636872], [-155.958908, 19.59727], [-155.95655, 19.589889], [-155.955679, 19.588538], [-155.956305, 19.58756], [-155.955772, 19.585047], [-155.95593, 19.583052], [-155.956128, 19.582654], [-155.957523, 19.58134], [-155.957677, 19.580861], [-155.957859, 19.578231], [-155.95901, 19.57658], [-155.959493, 19.573818], [-155.960799, 19.571782], [-155.961268, 19.569477], [-155.961715, 19.56881], [-155.960079, 19.567235], [-155.95937, 19.566059], [-155.958703, 19.561306], [-155.958686, 19.559163], [-155.959436, 19.55758], [-155.96146, 19.558454], [-155.962331, 19.559177], [-155.96257, 19.559777], [-155.962318, 19.560704], [-155.961883, 19.561141], [-155.961959, 19.56179], [-155.962069, 19.561809], [-155.961983, 19.561636], [-155.962132, 19.561777], [-155.962224, 19.561636], [-155.961924, 19.56135], [-155.962022, 19.561007], [-155.962177, 19.560899], [-155.962483, 19.561162], [-155.962208, 19.560653], [-155.962485, 19.561136]], [[-155.892178, 19.475258], [-155.890829, 19.473524], [-155.887164, 19.46783], [-155.885628, 19.466543], [-155.8847, 19.466044], [-155.884042, 19.465391], [-155.883318, 19.463829], [-155.881355, 19.461421], [-155.879781, 19.456929], [-155.879918, 19.439263], [-155.880139, 19.438424], [-155.881166, 19.436632], [-155.881158, 19.434592], [-155.881536, 19.432676], [-155.881492, 19.432164], [-155.880374, 19.428686], [-155.880138, 19.425059], [-155.880327, 19.423928], [-155.881549, 19.421029], [-155.881454, 19.418974], [-155.881224, 19.418236], [-155.880449, 19.41812], [-155.88031, 19.417909], [-155.880145, 19.41693], [-155.88026, 19.416772], [-155.880473, 19.416802], [-155.881566, 19.417749], [-155.884185, 19.421402], [-155.884605, 19.422335], [-155.885104, 19.424574], [-155.887456, 19.429339], [-155.890269, 19.434445], [-155.890714, 19.434916], [-155.891207, 19.435114], [-155.891978, 19.43498], [-155.892421, 19.434691], [-155.893639, 19.432622], [-155.894246, 19.431032], [-155.896259, 19.422523], [-155.896501, 19.422028], [-155.896956, 19.421604], [-155.897735, 19.421347], [-155.898631, 19.421546], [-155.899114, 19.42193], [-155.900733, 19.423974], [-155.901358, 19.424498], [-155.902504, 19.425027], [-155.903802, 19.425203], [-155.904837, 19.425075], [-155.907145, 19.42427], [-155.908609, 19.424349], [-155.90973, 19.424729], [-155.910134, 19.423918], [-155.909901, 19.422978], [-155.910273, 19.421765], [-155.910143, 19.421718]], [[-155.993609, 19.638672], [-155.99264, 19.63749], [-155.990607, 19.638627], [-155.991357, 19.639929], [-155.991834, 19.640392], [-155.992809, 19.640797], [-155.994979, 19.641181], [-155.996093, 19.641983], [-155.99439, 19.64495], [-155.993714, 19.646501], [-156.001236, 19.650314], [-156.002345, 19.651076], [-156.002614, 19.651079], [-156.003825, 19.64979], [-156.004065, 19.649767], [-156.004273, 19.650047], [-156.00336, 19.650879], [-156.003492, 19.650964], [-156.0034, 19.651091], [-156.003469, 19.650873], [-156.003809, 19.651018]], [[-156.003467, 19.650958], [-156.003341, 19.650894], [-156.004293, 19.649957], [-156.003345, 19.649123], [-156.002159, 19.648776], [-156.001905, 19.649179], [-156.001738, 19.648914], [-156.002021, 19.649062], [-156.001902, 19.649184], [-156.002066, 19.649108], [-156.002049, 19.64873], [-155.999889, 19.647794], [-155.999617, 19.648036], [-155.99933, 19.648881], [-155.999115, 19.648943], [-155.989307, 19.644174], [-155.989193, 19.643892], [-155.989858, 19.642827], [-155.990471, 19.643579], [-155.990658, 19.643609], [-155.990634, 19.643445]], [[-155.990422, 19.643055], [-155.990504, 19.64328], [-155.990364, 19.64332], [-155.990132, 19.642931], [-155.990304, 19.643518], [-155.989565, 19.642954], [-155.988681, 19.644616], [-155.988618, 19.645274], [-155.988932, 19.64874], [-155.988525, 19.649087], [-155.988588, 19.649601], [-155.987627, 19.650404], [-155.985374, 19.651817], [-155.984517, 19.652695], [-155.983941, 19.653964], [-155.983366, 19.657749], [-155.982932, 19.658386], [-155.981869, 19.659204], [-155.981324, 19.660067], [-155.981251, 19.660695], [-155.981739, 19.664124], [-155.981143, 19.666229], [-155.981164, 19.667796], [-155.978468, 19.677043], [-155.977289, 19.679776], [-155.975362, 19.68182], [-155.97508, 19.682534], [-155.975185, 19.683438], [-155.975634, 19.684548], [-155.975334, 19.686284], [-155.97538, 19.686842], [-155.977091, 19.696725], [-155.97703, 19.699901], [-155.978019, 19.714303], [-155.977397, 19.720345], [-155.977567, 19.721355], [-155.978452, 19.723832], [-155.978871, 19.72785], [-155.978829, 19.729385], [-155.97853, 19.731209], [-155.978315, 19.731202], [-155.978039, 19.730211], [-155.978546, 19.726725], [-155.978757, 19.726721], [-155.978955, 19.727314], [-155.97996, 19.727421], [-155.980545, 19.72572], [-155.981439, 19.725612], [-155.981486, 19.726184], [-155.981311, 19.72617]], [[-155.910386, 19.421587], [-155.910159, 19.421737], [-155.910089, 19.421623], [-155.910256, 19.421693], [-155.910177, 19.421813], [-155.910309, 19.421537], [-155.910015, 19.421478], [-155.909771, 19.422063], [-155.909704, 19.422656], [-155.910209, 19.423681], [-155.909672, 19.424809], [-155.911094, 19.426338], [-155.911877, 19.426879], [-155.913445, 19.429314], [-155.914364, 19.431115], [-155.914337, 19.431749], [-155.91575, 19.44082], [-155.916134, 19.444516], [-155.916721, 19.447373], [-155.918098, 19.457023], [-155.919036, 19.467022], [-155.918699, 19.468652], [-155.918485, 19.471189], [-155.918087, 19.472373], [-155.918643, 19.473556], [-155.918583, 19.473422], [-155.91821, 19.474112], [-155.917416, 19.47402], [-155.916137, 19.473583], [-155.913706, 19.470247], [-155.913839, 19.471209], [-155.913853, 19.470832], [-155.913384, 19.470278], [-155.913233, 19.470508], [-155.912806, 19.470226], [-155.911983, 19.47012], [-155.911005, 19.469757], [-155.907972, 19.467856], [-155.905788, 19.468051], [-155.90515, 19.469168], [-155.904691, 19.469224], [-155.902099, 19.465163], [-155.900539, 19.464644], [-155.899854, 19.464088], [-155.899684, 19.464442], [-155.899969, 19.466022], [-155.899354, 19.467627], [-155.898952, 19.470027], [-155.899106, 19.470592], [-155.900724, 19.473359], [-155.900845, 19.474038], [-155.90169, 19.475035], [-155.902302, 19.475347], [-155.902892, 19.476255], [-155.903966, 19.477141], [-155.904561, 19.478131], [-155.90645, 19.479413], [-155.907275, 19.47976], [-155.907575, 19.480526], [-155.908143, 19.480909], [-155.909124, 19.481006], [-155.909621, 19.480688], [-155.910538, 19.480851], [-155.912335, 19.481794], [-155.912306, 19.48202], [-155.911692, 19.482352], [-155.912908, 19.482558], [-155.913054, 19.482762], [-155.913218, 19.483344], [-155.913554, 19.48364], [-155.918344, 19.49305], [-155.918393, 19.493937], [-155.918682, 19.49473], [-155.918866, 19.497299], [-155.920307, 19.501359], [-155.920503, 19.502903], [-155.920221, 19.506865], [-155.919983, 19.50782], [-155.92014, 19.511185], [-155.920572, 19.514261], [-155.920508, 19.515744], [-155.920073, 19.518092], [-155.920142, 19.519354], [-155.921021, 19.522361], [-155.92339, 19.526188], [-155.9251, 19.530386], [-155.925356, 19.530567], [-155.927019, 19.533229], [-155.927989, 19.535442], [-155.927998, 19.536332], [-155.928838, 19.539995], [-155.929068, 19.542611], [-155.932215, 19.545674], [-155.933321, 19.547093], [-155.934746, 19.549354], [-155.93965, 19.559481], [-155.942441, 19.567286], [-155.943193, 19.568917], [-155.945233, 19.572056], [-155.948014, 19.575312], [-155.95195, 19.580963], [-155.954303, 19.586476], [-155.957306, 19.591268], [-155.958006, 19.594805], [-155.958969, 19.597459], [-155.967756, 19.614659], [-155.967919, 19.614841], [-155.968513, 19.614817], [-155.971247, 19.616816], [-155.975797, 19.619049], [-155.976563, 19.620068], [-155.977277, 19.622407], [-155.978089, 19.623598], [-155.983393, 19.627225], [-155.984554, 19.628252], [-155.985541, 19.629565], [-155.990526, 19.638363], [-155.990781, 19.63842], [-155.992654, 19.637543], [-155.993249, 19.638152], [-155.994074, 19.639481], [-155.99463, 19.639868], [-155.994686, 19.640145], [-155.99562, 19.641165], [-155.995529, 19.64129], [-155.994729, 19.640927], [-155.992591, 19.640589], [-155.991579, 19.640054], [-155.990952, 19.639195], [-155.990701, 19.638457], [-155.992661, 19.637564], [-155.99364, 19.638771]]]}}, {"type": "Feature", "properties": {"label": "Driving", "color": "#888888"}, "geometry": {"type": "MultiLineString", "coordinates": [[[-155.384291, 19.677115], [-155.384287, 19.677255], [-155.383859, 19.677352], [-155.376693, 19.675926], [-155.37575, 19.675413], [-155.372432, 19.67196], [-155.371134, 19.670952], [-155.369161, 19.670048], [-155.367548, 19.669727], [-155.366407, 19.669683], [-155.359239, 19.670719], [-155.352187, 19.670926], [-155.35087, 19.671145], [-155.343239, 19.67336], [-155.339535, 19.675587], [-155.337317, 19.676265], [-155.3322, 19.676307], [-155.329363, 19.675849], [-155.32254, 19.677415], [-155.316762, 19.676985], [-155.313194, 19.677216], [-155.308192, 19.677217], [-155.303193, 19.678322], [-155.301994, 19.678805], [-155.299428, 19.680713], [-155.296571, 19.682311], [-155.293648, 19.684698], [-155.291366, 19.685765], [-155.28978, 19.686099], [-155.285796, 19.686265], [-155.282952, 19.687216], [-155.282127, 19.687354], [-155.277331, 19.68691], [-155.27651, 19.687123], [-155.273485, 19.688677], [-155.272636, 19.688871], [-155.271473, 19.688798], [-155.269093, 19.688072], [-155.267667, 19.68803], [-155.259954, 19.690992], [-155.25925, 19.691426], [-155.257206, 19.693259], [-155.256232, 19.693733], [-155.255372, 19.693895], [-155.246524, 19.694269], [-155.245118, 19.694552], [-155.243746, 19.695157], [-155.240542, 19.697421], [-155.237518, 19.698978], [-155.236, 19.699541], [-155.234139, 19.699739], [-155.232613, 19.699539], [-155.22665, 19.697967], [-155.223151, 19.696536], [-155.220861, 19.695096], [-155.220071, 19.694819], [-155.213917, 19.694404], [-155.204177, 19.692613], [-155.19701, 19.689939], [-155.195702, 19.689158], [-155.194683, 19.688106], [-155.191616, 19.68312], [-155.190534, 19.681762], [-155.189008, 19.680517], [-155.186938, 19.679466], [-155.16294, 19.673684], [-155.161345, 19.673514], [-155.16003, 19.673588], [-155.158065, 19.674107], [-155.156273, 19.675076], [-155.154885, 19.676336], [-155.152345, 19.679863], [-155.151437, 19.680559], [-155.150108, 19.681079], [-155.145945, 19.681301], [-155.143137, 19.681746], [-155.141029, 19.681814], [-155.139635, 19.681591], [-155.130638, 19.679292], [-155.128374, 19.679266], [-155.125959, 19.679865], [-155.124129, 19.680871], [-155.119992, 19.684258], [-155.118878, 19.685527], [-155.115204, 19.69058], [-155.11379, 19.691737], [-155.11246, 19.69229], [-155.103792, 19.693051], [-155.099561, 19.69387], [-155.097217, 19.694009], [-155.093956, 19.693674], [-155.090553, 19.69397], [-155.091189, 19.701936], [-155.091438, 19.703097], [-155.092067, 19.704425], [-155.096217, 19.710763], [-155.096608, 19.711707], [-155.096753, 19.713569], [-155.09533, 19.71404], [-155.084989, 19.721583], [-155.084969, 19.721729], [-155.085792, 19.722428], [-155.086972, 19.724346]], [[-155.981209, 19.726136], [-155.981437, 19.726083], [-155.981404, 19.725593], [-155.980557, 19.725649], [-155.980042, 19.727267], [-155.97884, 19.72725], [-155.978655, 19.730474], [-155.977206, 19.737534], [-155.974476, 19.745148], [-155.973745, 19.750854], [-155.973246, 19.752255], [-155.972333, 19.753469], [-155.970849, 19.754584], [-155.96978, 19.755049], [-155.967311, 19.755744], [-155.966123, 19.756353], [-155.961438, 19.760606], [-155.960289, 19.761372], [-155.958763, 19.761952], [-155.936613, 19.767662], [-155.93535, 19.768189], [-155.933248, 19.768435], [-155.932409, 19.768817], [-155.930642, 19.770271], [-155.927284, 19.771729], [-155.924236, 19.774153], [-155.922687, 19.774762], [-155.917561, 19.775934], [-155.910294, 19.780572], [-155.903824, 19.782897], [-155.898982, 19.784998], [-155.87501, 19.792271], [-155.855585, 19.798719], [-155.850682, 19.80004], [-155.847684, 19.802429], [-155.84058, 19.80745], [-155.84044, 19.807875], [-155.840548, 19.808492], [-155.840865, 19.80886], [-155.841623, 19.809194], [-155.843567, 19.812179], [-155.843905, 19.812949], [-155.843896, 19.814068], [-155.843214, 19.815491], [-155.842704, 19.816112], [-155.835341, 19.82055], [-155.816343, 19.83005], [-155.811171, 19.830897], [-155.801695, 19.831173], [-155.800133, 19.831635], [-155.79653, 19.833604], [-155.795832, 19.83377], [-155.790486, 19.833661], [-155.788894, 19.833802], [-155.787575, 19.834261], [-155.785052, 19.835804], [-155.777591, 19.838127], [-155.775015, 19.838008], [-155.771544, 19.837581], [-155.770142, 19.837648], [-155.764374, 19.84002], [-155.752975, 19.843063], [-155.748468, 19.844103], [-155.748173, 19.843856], [-155.747425, 19.84143], [-155.74681, 19.840022], [-155.745933, 19.838746], [-155.74503, 19.837789], [-155.743708, 19.83679], [-155.742553, 19.836181], [-155.735257, 19.833771], [-155.734271, 19.833329], [-155.733396, 19.832715], [-155.732695, 19.83196], [-155.732159, 19.83106], [-155.730866, 19.827361], [-155.729576, 19.825687], [-155.721496, 19.81984], [-155.720791, 19.819118], [-155.717581, 19.814912], [-155.716256, 19.813574], [-155.702668, 19.803062], [-155.700516, 19.801948], [-155.687718, 19.799203], [-155.685759, 19.798243], [-155.680066, 19.794206], [-155.677782, 19.793268], [-155.675614, 19.792954], [-155.668228, 19.793335], [-155.666329, 19.793148], [-155.664499, 19.792591], [-155.655138, 19.788957], [-155.652722, 19.78843], [-155.64997, 19.788486], [-155.647347, 19.789197], [-155.645002, 19.790528], [-155.641328, 19.793665], [-155.640145, 19.794258], [-155.63904, 19.794574], [-155.636886, 19.794662], [-155.628857, 19.793283], [-155.627552, 19.792821], [-155.625977, 19.791816], [-155.617746, 19.783776], [-155.616534, 19.782709], [-155.615407, 19.781968], [-155.613924, 19.781301], [-155.612623, 19.780925], [-155.598365, 19.778591], [-155.596274, 19.777935], [-155.5942, 19.776683], [-155.584837, 19.768812], [-155.582448, 19.767526], [-155.580329, 19.766998], [-155.552256, 19.76338], [-155.543848, 19.76114], [-155.536082, 19.760378], [-155.534752, 19.75997], [-155.533505, 19.759355], [-155.531771, 19.75797], [-155.53057, 19.756345], [-155.529903, 19.754642], [-155.528929, 19.750178], [-155.528372, 19.749111], [-155.527289, 19.747885], [-155.526333, 19.747168], [-155.525367, 19.746692], [-155.518817, 19.744816], [-155.517562, 19.744278], [-155.516438, 19.743578], [-155.502281, 19.73009], [-155.501737, 19.729199], [-155.500846, 19.725686], [-155.500211, 19.724529], [-155.493939, 19.717951], [-155.488455, 19.710751], [-155.484758, 19.706894], [-155.484276, 19.70543], [-155.483581, 19.69679], [-155.483209, 19.695277], [-155.482665, 19.694102], [-155.481904, 19.693038], [-155.480941, 19.692101], [-155.479579, 19.691223], [-155.477252, 19.690469], [-155.460292, 19.688238], [-155.45101, 19.687449], [-155.447272, 19.686519], [-155.441624, 19.685724], [-155.437679, 19.685884], [-155.43625, 19.685804], [-155.431684, 19.684544], [-155.430261, 19.684477], [-155.425511, 19.684751], [-155.422353, 19.684588], [-155.418372, 19.684747], [-155.407145, 19.682387], [-155.40118, 19.682269], [-155.397228, 19.681619], [-155.393231, 19.681311], [-155.391088, 19.680563], [-155.387467, 19.678175], [-155.385976, 19.677621], [-155.384315, 19.677267], [-155.384201, 19.677143], [-155.384321, 19.677086]], [[-155.093383, 19.812655], [-155.092625, 19.817804], [-155.095031, 19.824772], [-155.095816, 19.826116], [-155.096988, 19.827234], [-155.09699, 19.828179], [-155.096743, 19.828377], [-155.096316, 19.829249], [-155.097625, 19.831784], [-155.099319, 19.834175], [-155.099585, 19.835274], [-155.101019, 19.838237], [-155.101363, 19.83929], [-155.103363, 19.840051], [-155.102757, 19.846804], [-155.099914, 19.855315], [-155.099641, 19.85673], [-155.099759, 19.858901], [-155.100473, 19.862658], [-155.101029, 19.864259], [-155.10166, 19.865329], [-155.102452, 19.866238], [-155.106118, 19.869566], [-155.108336, 19.873079], [-155.114157, 19.877347], [-155.11999, 19.883852], [-155.120575, 19.884899], [-155.121977, 19.889641], [-155.122696, 19.891111], [-155.1238, 19.892489], [-155.127291, 19.895716], [-155.128207, 19.896751], [-155.132384, 19.903786], [-155.133033, 19.904528], [-155.134762, 19.90597], [-155.136733, 19.908749], [-155.137292, 19.909848], [-155.13805, 19.912128], [-155.138943, 19.913579], [-155.140048, 19.914563], [-155.149045, 19.921205], [-155.151548, 19.922284], [-155.152243, 19.922743], [-155.152677, 19.92321], [-155.154085, 19.925491], [-155.157426, 19.928478], [-155.159976, 19.93205], [-155.161073, 19.933178], [-155.161968, 19.933792], [-155.166029, 19.935784], [-155.169079, 19.938799], [-155.169758, 19.939293], [-155.17226, 19.940269], [-155.17321, 19.940867], [-155.17819, 19.946364], [-155.183559, 19.949837], [-155.185576, 19.950966], [-155.187661, 19.952987], [-155.191026, 19.954426], [-155.191992, 19.954646], [-155.193125, 19.95425], [-155.193898, 19.953549], [-155.195042, 19.952126], [-155.197771, 19.952461], [-155.197106, 19.953768], [-155.196827, 19.955564], [-155.197512, 19.958487], [-155.198209, 19.959888], [-155.201721, 19.963407], [-155.204712, 19.965122], [-155.208564, 19.969513], [-155.209949, 19.970671], [-155.219915, 19.975498], [-155.221268, 19.976451], [-155.226284, 19.98077], [-155.233127, 19.984408], [-155.235553, 19.985082], [-155.235956, 19.985361], [-155.23653, 19.985251], [-155.2373, 19.985368], [-155.240187, 19.985909], [-155.241546, 19.986366], [-155.243564, 19.988264], [-155.24403, 19.988515], [-155.24482, 19.98851], [-155.2452, 19.988346], [-155.247465, 19.986413], [-155.247961, 19.986381], [-155.24865, 19.986607], [-155.24899, 19.987052], [-155.248943, 19.987694], [-155.252808, 19.997036], [-155.259524, 20.003677], [-155.260505, 20.003919], [-155.261269, 20.003711], [-155.261896, 20.003248], [-155.269174, 20.007794], [-155.271289, 20.008399], [-155.275282, 20.010576], [-155.276744, 20.011044], [-155.278282, 20.011165], [-155.285682, 20.009953], [-155.287668, 20.00992], [-155.288972, 20.010203], [-155.291986, 20.011451], [-155.299852, 20.01378], [-155.306793, 20.016368], [-155.307927, 20.016489], [-155.309049, 20.016335], [-155.312538, 20.015061], [-155.313816, 20.015039], [-155.315091, 20.015302], [-155.334373, 20.02571], [-155.349345, 20.030511], [-155.358255, 20.034898], [-155.366798, 20.038559], [-155.370912, 20.040672], [-155.372836, 20.042561], [-155.373979, 20.043276], [-155.389613, 20.048989], [-155.397781, 20.051689], [-155.399484, 20.0524], [-155.416639, 20.062711], [-155.417865, 20.063301], [-155.419624, 20.06377], [-155.428357, 20.06507], [-155.437829, 20.067322], [-155.439059, 20.067816], [-155.443092, 20.070212], [-155.444261, 20.070603], [-155.445759, 20.07063], [-155.450113, 20.069588], [-155.452254, 20.071174], [-155.452979, 20.072772], [-155.453427, 20.073296], [-155.459074, 20.076031], [-155.461376, 20.076282], [-155.467835, 20.079111], [-155.471568, 20.079893], [-155.472813, 20.080561], [-155.472967, 20.080483], [-155.471493, 20.079807], [-155.469728, 20.079531], [-155.469844, 20.07943], [-155.469257, 20.079369], [-155.469449, 20.079382], [-155.468955, 20.079255], [-155.469015, 20.079165], [-155.468919, 20.079332], [-155.469033, 20.078988], [-155.468932, 20.079314], [-155.469115, 20.079469], [-155.469575, 20.079611], [-155.469769, 20.079444], [-155.47, 20.07964], [-155.471365, 20.079828], [-155.47325, 20.080661], [-155.47436, 20.080844], [-155.475838, 20.080766], [-155.477475, 20.081362], [-155.479722, 20.081318], [-155.482507, 20.082031], [-155.483719, 20.082551], [-155.485903, 20.084099], [-155.4865, 20.084368], [-155.487555, 20.0844], [-155.489488, 20.083972], [-155.490567, 20.084139], [-155.4913, 20.084715], [-155.492096, 20.085949], [-155.492633, 20.086405], [-155.49867, 20.088523], [-155.505799, 20.09265], [-155.508574, 20.093293], [-155.512611, 20.096155], [-155.51628, 20.097019], [-155.518877, 20.097928], [-155.523081, 20.100385], [-155.526062, 20.101563], [-155.529005, 20.103265], [-155.535349, 20.106036], [-155.547569, 20.110747], [-155.554184, 20.112855], [-155.560973, 20.115727], [-155.563152, 20.116074], [-155.578398, 20.115839], [-155.580692, 20.115965], [-155.581319, 20.116102], [-155.581354, 20.116593], [-155.581601, 20.11687], [-155.583412, 20.117645], [-155.583507, 20.117571]], [[-155.859009, 19.955089], [-155.858524, 19.954997], [-155.857317, 19.954106], [-155.856316, 19.953927], [-155.855704, 19.953456], [-155.855679, 19.953074], [-155.855873, 19.952646], [-155.856464, 19.952247], [-155.856892, 19.951431], [-155.856383, 19.950944], [-155.855956, 19.950162], [-155.855845, 19.947472], [-155.85495, 19.945525], [-155.85475, 19.944592], [-155.855105, 19.943068], [-155.856198, 19.941631], [-155.856595, 19.940828], [-155.85704, 19.940476], [-155.857756, 19.940246], [-155.857747, 19.939724], [-155.856794, 19.939377], [-155.853266, 19.936111], [-155.852017, 19.935409], [-155.850157, 19.935301], [-155.84722, 19.936527], [-155.845903, 19.936603], [-155.845021, 19.936323], [-155.844305, 19.935838], [-155.843693, 19.935161], [-155.843761, 19.934685], [-155.849394, 19.930245], [-155.884549, 19.903952], [-155.887863, 19.901133], [-155.890748, 19.8981], [-155.893545, 19.89433], [-155.895823, 19.890324], [-155.913022, 19.852123], [-155.915644, 19.848034], [-155.918883, 19.844366], [-155.921563, 19.842013], [-155.92283, 19.841149], [-155.92323, 19.841197], [-155.923006, 19.841166], [-155.923066, 19.840881], [-155.928281, 19.837913], [-155.930239, 19.841413], [-155.930313, 19.842282], [-155.92985, 19.844469], [-155.930356, 19.846351], [-155.931772, 19.850333]], [[-155.931769, 19.850371], [-155.931544, 19.850053], [-155.930995, 19.848145], [-155.930714, 19.84778], [-155.930737, 19.847398], [-155.929876, 19.844713], [-155.93029, 19.84168], [-155.930203, 19.841318], [-155.92834, 19.838035], [-155.92833, 19.837786], [-155.931645, 19.836031], [-155.9603, 19.819394], [-155.966272, 19.816133], [-155.968682, 19.815152], [-155.971321, 19.814376], [-155.97759, 19.813467], [-155.981739, 19.812409], [-155.985916, 19.810599], [-155.989052, 19.808588], [-155.992944, 19.805511], [-155.996627, 19.802204], [-156.000666, 19.798213], [-156.004515, 19.793995], [-156.00916, 19.788078], [-156.017946, 19.775941], [-156.019888, 19.772894], [-156.021576, 19.769389], [-156.023539, 19.765109], [-156.024658, 19.762214], [-156.02638, 19.756004], [-156.029821, 19.73663], [-156.030867, 19.732198], [-156.033267, 19.718449], [-156.034036, 19.713593], [-156.034124, 19.711195], [-156.033621, 19.708313], [-156.032544, 19.705597], [-156.028009, 19.698221], [-156.022546, 19.689826], [-156.02154, 19.68665], [-156.019657, 19.678611], [-156.019029, 19.67708], [-156.017149, 19.67381], [-156.015491, 19.671345], [-156.014035, 19.671812], [-156.012967, 19.67138], [-156.012599, 19.671379], [-156.011054, 19.671994], [-156.011743, 19.674518], [-156.011972, 19.674617], [-156.012636, 19.674304], [-156.015577, 19.673749], [-156.015357, 19.673009]], [[-156.015629, 19.673037], [-156.015853, 19.672913], [-156.015809, 19.673121], [-156.016128, 19.673597], [-156.016574, 19.673538], [-156.016839, 19.673818], [-156.018015, 19.675657], [-156.019171, 19.677913], [-156.019888, 19.680117], [-156.021545, 19.687251], [-156.022668, 19.690292], [-156.021792, 19.690933], [-156.01937, 19.69209], [-156.018347, 19.69246], [-156.01694, 19.692719], [-156.014613, 19.692577], [-156.012573, 19.691825], [-156.010001, 19.689993], [-156.00897, 19.689432], [-156.007233, 19.689048], [-156.005566, 19.68917], [-156.004179, 19.689751], [-156.003199, 19.69048], [-155.998455, 19.695661], [-155.996771, 19.697051], [-155.994383, 19.698116], [-155.991399, 19.698418], [-155.989371, 19.698079], [-155.987473, 19.697294], [-155.978796, 19.691004], [-155.977298, 19.690622], [-155.976043, 19.690867], [-155.977068, 19.697259], [-155.9766, 19.707275], [-155.977837, 19.713027], [-155.977981, 19.714368], [-155.977366, 19.719835], [-155.977377, 19.720807], [-155.978351, 19.723592], [-155.978838, 19.727312], [-155.980018, 19.727386], [-155.9804, 19.725923], [-155.980621, 19.725655], [-155.981375, 19.725641], [-155.981409, 19.726128], [-155.981203, 19.726189]], [[-155.583521, 20.117613], [-155.581492, 20.11673], [-155.581331, 20.116451], [-155.581352, 20.115995], [-155.581044, 20.115866], [-155.579432, 20.115745], [-155.561459, 20.115888], [-155.560722, 20.11569], [-155.55374, 20.112782], [-155.548332, 20.111075], [-155.49466, 20.087207], [-155.492683, 20.086553], [-155.492089, 20.086061], [-155.491123, 20.084613], [-155.490528, 20.084165], [-155.489427, 20.08402], [-155.487199, 20.084522], [-155.486438, 20.084446], [-155.483543, 20.082578], [-155.482494, 20.082136], [-155.479528, 20.08137], [-155.477399, 20.081408], [-155.475862, 20.08084], [-155.473494, 20.080786], [-155.47139, 20.079874], [-155.469613, 20.079576], [-155.46954, 20.079353], [-155.470588, 20.076412], [-155.471021, 20.076023], [-155.472188, 20.075612], [-155.472885, 20.074604], [-155.473035, 20.073714], [-155.472798, 20.071444], [-155.472898, 20.07126], [-155.482648, 20.070337], [-155.491222, 20.071251], [-155.493907, 20.071265], [-155.495514, 20.070945], [-155.500344, 20.069325], [-155.505293, 20.067916], [-155.516214, 20.066693], [-155.518118, 20.066349], [-155.520992, 20.06543], [-155.52777, 20.062542], [-155.529291, 20.062152], [-155.531401, 20.061994], [-155.537527, 20.06265], [-155.539286, 20.062498], [-155.540267, 20.062155], [-155.541367, 20.061532], [-155.551018, 20.054225], [-155.552118, 20.053577], [-155.553501, 20.05303], [-155.569399, 20.049867], [-155.576398, 20.048262], [-155.587698, 20.04561], [-155.597449, 20.042598], [-155.608189, 20.04078], [-155.619074, 20.037765], [-155.63272, 20.034779], [-155.634401, 20.03406], [-155.639514, 20.030374], [-155.645814, 20.028627], [-155.651694, 20.02789], [-155.661386, 20.024676], [-155.664223, 20.024219], [-155.668823, 20.020574], [-155.669779, 20.021514], [-155.670248, 20.02175], [-155.678286, 20.022808], [-155.68128, 20.024704], [-155.683723, 20.025578], [-155.685706, 20.025854], [-155.68974, 20.025856], [-155.692503, 20.026049], [-155.698265, 20.026549], [-155.699071, 20.026782], [-155.701006, 20.026008], [-155.702102, 20.025892], [-155.713085, 20.028072], [-155.714802, 20.027908], [-155.721444, 20.026262], [-155.723805, 20.026137], [-155.724743, 20.025936], [-155.728051, 20.024641], [-155.731136, 20.022626], [-155.73185, 20.022375], [-155.735781, 20.023342], [-155.74531, 20.024169], [-155.745891, 20.024086], [-155.746584, 20.02374], [-155.748068, 20.022326], [-155.748864, 20.022229], [-155.756471, 20.0244], [-155.75753, 20.024501], [-155.761876, 20.023591], [-155.768894, 20.022643], [-155.77064, 20.02271], [-155.773308, 20.021584], [-155.774564, 20.021928], [-155.777366, 20.022309], [-155.783131, 20.022216], [-155.783733, 20.021987], [-155.784368, 20.021418], [-155.785022, 20.019685], [-155.785695, 20.019254], [-155.786729, 20.019096], [-155.787695, 20.019314], [-155.789461, 20.020841], [-155.79014, 20.021045], [-155.791745, 20.021167], [-155.79278, 20.021], [-155.793866, 20.020549], [-155.795605, 20.020661], [-155.796204, 20.020381], [-155.79749, 20.019135], [-155.798634, 20.018916], [-155.800957, 20.019854], [-155.802514, 20.019812], [-155.804758, 20.020558], [-155.807155, 20.021012], [-155.810756, 20.022876], [-155.812885, 20.022747], [-155.813099, 20.020208], [-155.812868, 20.014573], [-155.812954, 20.012959], [-155.820086, 19.978917], [-155.820435, 19.97636], [-155.820563, 19.972534], [-155.820836, 19.969723], [-155.821561, 19.966188], [-155.822923, 19.962371], [-155.824752, 19.958782], [-155.832636, 19.947076], [-155.836878, 19.941582], [-155.841238, 19.93694], [-155.843078, 19.935298], [-155.843589, 19.935327], [-155.84496, 19.936377], [-155.846331, 19.936678], [-155.847279, 19.936508], [-155.850036, 19.935417], [-155.851109, 19.935319], [-155.8521, 19.935493], [-155.853145, 19.936047], [-155.856841, 19.939648], [-155.856844, 19.940482], [-155.855074, 19.943102], [-155.854718, 19.944198], [-155.854855, 19.945382], [-155.855762, 19.947377], [-155.855921, 19.950081], [-155.856196, 19.950702], [-155.856834, 19.951436], [-155.856434, 19.952216], [-155.855788, 19.95267], [-155.855638, 19.953233], [-155.856189, 19.953864], [-155.857403, 19.954227], [-155.858478, 19.954932], [-155.859453, 19.955117]], [[-155.08683, 19.724365], [-155.08702, 19.724398], [-155.087954, 19.725893], [-155.086582, 19.726919], [-155.088534, 19.729851], [-155.090018, 19.732708], [-155.090935, 19.734482], [-155.09132, 19.736075], [-155.091359, 19.737498], [-155.090631, 19.74184], [-155.090547, 19.742102], [-155.090006, 19.742305], [-155.09006, 19.742208], [-155.090058, 19.74245], [-155.090098, 19.742296], [-155.090312, 19.74258], [-155.090515, 19.742146], [-155.090612, 19.742205], [-155.090502, 19.744482], [-155.09142, 19.748627], [-155.091748, 19.752271], [-155.092362, 19.754119], [-155.092459, 19.754914], [-155.090989, 19.762382], [-155.090877, 19.763977], [-155.091266, 19.766144], [-155.093826, 19.775026], [-155.093739, 19.776636], [-155.091903, 19.785662], [-155.091787, 19.787006], [-155.092038, 19.788334], [-155.092539, 19.789426], [-155.093263, 19.790367], [-155.094499, 19.791373], [-155.094617, 19.791671], [-155.094077, 19.793913], [-155.093923, 19.795967], [-155.093291, 19.796713], [-155.09338, 19.79733], [-155.093186, 19.800901], [-155.093281, 19.801296], [-155.093674, 19.801632], [-155.093435, 19.802028], [-155.093396, 19.802656], [-155.092597, 19.803722], [-155.092762, 19.803927], [-155.093348, 19.80399], [-155.093481, 19.804562], [-155.092737, 19.805021], [-155.091857, 19.805859], [-155.092083, 19.80609], [-155.093296, 19.806401], [-155.093919, 19.807547], [-155.094867, 19.808031], [-155.095681, 19.809882], [-155.096053, 19.810395], [-155.096038, 19.810776], [-155.096352, 19.810929], [-155.096184, 19.810607]]]}}, {"type": "Feature", "properties": {"label": "Driving", "color": "#888888"}, "geometry": {"type": "MultiLineString", "coordinates": [[[-156.023348, 19.670724], [-156.023615, 19.670876], [-156.023406, 19.67101], [-156.021473, 19.6709], [-156.020953, 19.670486], [-156.020141, 19.669139], [-156.019731, 19.669479], [-156.016296, 19.670704], [-156.01558, 19.671153], [-156.015424, 19.671543], [-156.018174, 19.675777], [-156.01928, 19.678063], [-156.01979, 19.679603], [-156.021415, 19.686729], [-156.022434, 19.689492], [-156.024758, 19.693531], [-156.032003, 19.705163], [-156.032767, 19.706689], [-156.033412, 19.708579], [-156.033837, 19.711341], [-156.033754, 19.713358], [-156.030556, 19.732665], [-156.030798, 19.732858], [-156.034954, 19.733181], [-156.034985, 19.734664], [-156.037126, 19.734848], [-156.03711, 19.735271], [-156.038024, 19.734872], [-156.038237, 19.733471], [-156.039228, 19.733501], [-156.039686, 19.733681], [-156.039925, 19.734196], [-156.039568, 19.738185], [-156.039622, 19.738457], [-156.039824, 19.738586], [-156.040111, 19.738511], [-156.040208, 19.738287], [-156.040413, 19.736145], [-156.04067, 19.736064], [-156.040943, 19.735651], [-156.040952, 19.735916], [-156.041087, 19.735796], [-156.040873, 19.736273], [-156.04133, 19.736225], [-156.041472, 19.735472], [-156.041303, 19.735872], [-156.041474, 19.735565]], [[-155.981232, 19.726131], [-155.981438, 19.726013], [-155.981421, 19.725583], [-155.980682, 19.725585], [-155.980419, 19.725835], [-155.980058, 19.727262], [-155.97881, 19.727158], [-155.97842, 19.723776], [-155.97758, 19.721512], [-155.977564, 19.718488], [-155.977952, 19.715691], [-155.978003, 19.713946], [-155.976675, 19.705718], [-155.977085, 19.696915], [-155.975826, 19.689284], [-155.975651, 19.684431], [-155.975245, 19.683629], [-155.975113, 19.682506], [-155.975362, 19.681881], [-155.977286, 19.679767], [-155.979732, 19.673956], [-155.979707, 19.670233], [-155.980064, 19.669544], [-155.980889, 19.66869], [-155.981151, 19.668151], [-155.981154, 19.666165], [-155.981711, 19.664206], [-155.981188, 19.660349], [-155.981606, 19.659373], [-155.983027, 19.658297], [-155.98339, 19.657774], [-155.983927, 19.654], [-155.984243, 19.653143], [-155.984844, 19.652264], [-155.985643, 19.651576], [-155.988846, 19.649518], [-155.992537, 19.647952], [-155.99379, 19.64667], [-155.994213, 19.646739], [-155.996374, 19.647759], [-156.002425, 19.65096], [-156.002766, 19.65086], [-156.003847, 19.649634], [-156.003676, 19.649286], [-156.00212, 19.64872], [-156.001484, 19.649393], [-156.001184, 19.649058], [-156.001439, 19.649138], [-156.001383, 19.649346], [-156.001455, 19.649167], [-156.001543, 19.649361], [-156.002025, 19.648714], [-155.999909, 19.647759], [-155.999287, 19.648816], [-155.998753, 19.648745], [-155.994066, 19.646301], [-155.993987, 19.645945], [-155.994358, 19.645259], [-155.994797, 19.645415], [-155.994885, 19.645219], [-155.994579, 19.645178], [-155.994524, 19.645019], [-155.994589, 19.645194], [-155.994585, 19.645025], [-155.994647, 19.645219], [-155.994566, 19.645054], [-155.994618, 19.645229], [-155.994487, 19.645172], [-155.994798, 19.645299], [-155.994522, 19.645172], [-155.994818, 19.645096], [-155.994841, 19.645286], [-155.994218, 19.645283], [-155.993703, 19.646184], [-155.99372, 19.646476], [-155.995599, 19.647184], [-155.996929, 19.648111], [-156.000972, 19.650188], [-156.002936, 19.651585], [-156.004373, 19.653018], [-156.005766, 19.655035], [-156.009538, 19.662574], [-156.017862, 19.675157], [-156.019542, 19.678519], [-156.019668, 19.678627], [-156.020417, 19.678335], [-156.021064, 19.678376], [-156.021591, 19.678053]], [[-156.021553, 19.678036], [-156.021773, 19.677962], [-156.021564, 19.677732], [-156.020026, 19.67846], [-156.019577, 19.678285], [-156.018614, 19.676115], [-156.015825, 19.671407], [-156.015786, 19.671105], [-156.01677, 19.67052], [-156.020175, 19.66916], [-156.020942, 19.670476], [-156.021432, 19.670873], [-156.022042, 19.67105], [-156.023328, 19.671045], [-156.023596, 19.670904], [-156.023337, 19.670735]]]}}, {"type": "Feature", "properties": {"name": "Hilo Coffee Mill", "url": "https://maps.app.goo.gl/Nz5C7uGauFFUB29B7"}, "geometry": {"type": "Point", "coordinates": [-155.088217, 19.564098]}}, {"type": "Feature", "properties": {"name": "Kiholo Bay Park", "url": "https://maps.app.goo.gl/G6gdS8V54U3CNWz47"}, "geometry": {"type": "Point", "coordinates": [-155.93186, 19.851164]}}, {"type": "Feature", "properties": {"name": "Paradise Bakery Hawaii", "url": "https://maps.app.goo.gl/96cirkR9zp51Dot86"}, "geometry": {"type": "Point", "coordinates": [-156.00152, 19.649259]}}, {"type": "Feature", "properties": {"name": "Kaloko-Honokōhau National Historical Park", "url": "https://maps.app.goo.gl/2bvqxJySkDjG4GZZ6"}, "geometry": {"type": "Point", "coordinates": [-156.021687, 19.677852]}}, {"type": "Feature", "properties": {"name": "L&L Hawaiian Barbecue", "url": "https://maps.app.goo.gl/eTfjBzbpYC9qyD9m7"}, "geometry": {"type": "Point", "coordinates": [-156.015169, 19.673043]}}, {"type": "Feature", "properties": {"name": "Coffee Notes", "url": "https://maps.app.goo.gl/Gd2E8k1vaQ2dg1Pm8"}, "geometry": {"type": "Point", "coordinates": [-155.087771, 19.725442]}}, {"type": "Feature", "properties": {"name": "Island Time Boba Cafe", "url": "https://maps.app.goo.gl/9gJVQfk2uveoSBqy6"}, "geometry": {"type": "Point", "coordinates": [-155.990274, 19.643621]}}, {"type": "Feature", "properties": {"name": "Hawaii Oceanic", "url": "https://maps.app.goo.gl/yyTbzutNtXDNCx7T7"}, "geometry": {"type": "Point", "coordinates": [-155.962031, 19.561391]}}, {"type": "Feature", "properties": {"name": "Pu'uhonua O Honaunau National Historical Park", "url": "https://maps.app.goo.gl/zUvkfRuDWKcPcgPW8"}, "geometry": {"type": "Point", "coordinates": [-155.909866, 19.422695]}}, {"type": "Feature", "properties": {"name": "Black Rock Pizza", "url": "https://maps.app.goo.gl/HHQq5UVM6LEH2YD69"}, "geometry": {"type": "Point", "coordinates": [-155.909436, 19.488227]}}, {"type": "Feature", "properties": {"name": "Magics Beach Grill", "url": "https://maps.app.goo.gl/vRnDWLV1zxUvTTnG6"}, "geometry": {"type": "Point", "coordinates": [-155.972458, 19.594989]}}, {"type": "Feature", "properties": {"name": "Enterprise Rent-A-Car", "url": "https://maps.app.goo.gl/k18DXR5c2mkFLiM49"}, "geometry": {"type": "Point", "coordinates": [-156.037211, 19.735038]}}, {"type": "Feature", "properties": {"name": "Puka Puka Kitchen", "url": "https://maps.app.goo.gl/CoJzUm6DKDPGFbgE6"}, "geometry": {"type": "Point", "coordinates": [-155.085651, 19.72419]}}, {"type": "Feature", "properties": {"name": "Kahalu’u Beach Park", "url": "https://maps.app.goo.gl/GYqmab7g3D8HZPyp7"}, "geometry": {"type": "Point", "coordinates": [-155.966671, 19.579266]}}, {"type": "Feature", "properties": {"name": "Shaka Tacoz", "url": "https://maps.app.goo.gl/UgnZH3wRryXLnPu66"}, "geometry": {"type": "Point", "coordinates": [-155.980564, 19.614144]}}, {"type": "Feature", "properties": {"name": "Gypsea Gelato", "url": "https://maps.app.goo.gl/Kv56P9og5dygqodz8"}, "geometry": {"type": "Point", "coordinates": [-155.989471, 19.634252]}}, {"type": "Feature", "properties": {"name": "The Coffee Shack", "url": "https://maps.app.goo.gl/t3rup2cjVNvB78Ru8"}, "geometry": {"type": "Point", "coordinates": [-155.892272, 19.475274]}}, {"type": "Feature", "properties": {"name": "Airbnb", "url": "https://maps.app.goo.gl/yXXQZDtf29i59rKm9"}, "geometry": {"type": "Point", "coordinates": [-155.981183, 19.72607]}}, {"type": "Feature", "properties": {"name": "Island Naturals Market & Deli", "url": "https://maps.app.goo.gl/jG4L8W5pzng9N5oF8"}, "geometry": {"type": "Point", "coordinates": [-156.003604, 19.651029]}}, {"type": "Feature", "properties": {"name": "Pu'u O'o Trail", "url": "https://maps.app.goo.gl/EMncSwwYvUReUeQZ6"}, "geometry": {"type": "Point", "coordinates": [-155.384316, 19.676992]}}, {"type": "Feature", "properties": {"name": "Lyman Museum", "url": "https://maps.app.goo.gl/Gy3EDLksNW6fUBm67"}, "geometry": {"type": "Point", "coordinates": [-155.090661, 19.722198]}}, {"type": "Feature", "properties": {"name": "Hawai‘i Tropical Botanical Garden", "url": "https://maps.app.goo.gl/Mt8sBwocy4RpE3Ta6"}, "geometry": {"type": "Point", "coordinates": [-155.096095, 19.81093]}}, {"type": "Feature", "properties": {"name": "Waipio Valley Lookout", "url": "https://maps.app.goo.gl/8S1VSC8fxgATRNKf7"}, "geometry": {"type": "Point", "coordinates": [-155.584348, 20.118019]}}, {"type": "Feature", "properties": {"name": "Mauna Kea", "url": "https://maps.app.goo.gl/8qQsziSYogNgmcP28"}, "geometry": {"type": "Point", "coordinates": [-155.468094, 19.820611]}}, {"type": "Feature", "properties": {"name": "Kīlauea Iki Trail", "url": "https://maps.app.goo.gl/JBsVAxifZjghHWqU7"}, "geometry": {"type": "Point", "coordinates": [-155.238838, 19.41356]}}, {"type": "Feature", "properties": {"name": "Punaluʻu Beach", "url": "https://maps.app.goo.gl/TwtX6SXz6qkCjmoi6"}, "geometry": {"type": "Point", "coordinates": [-155.504787, 19.135758]}}, {"type": "Feature", "properties": {"name": "Fudge'n Coffee Cafe", "url": "https://maps.app.goo.gl/RrEizfSJWqwPiSNVA"}, "geometry": {"type": "Point", "coordinates": [-155.468829, 20.079191]}}, {"type": "Feature", "properties": {"name": "Kona Farmers Market", "url": "https://maps.app.goo.gl/sDTtoTTFZ6hRtQQYA"}, "geometry": {"type": "Point", "coordinates": [-155.99184, 19.637065]}}, {"type": "Feature", "properties": {"name": "Kealakekua Bay", "url": "https://maps.app.goo.gl/e8qU66HMujLnPviG6"}, "geometry": {"type": "Point", "coordinates": [-155.925927, 19.475462]}}, {"type": "Feature", "properties": {"name": "Safeway", "url": "https://maps.app.goo.gl/xje7Vtvdsf9Zio8C9"}, "geometry": {"type": "Point", "coordinates": [-155.990987, 19.643907]}}]}